[{"OBJECT_NAME":"STARLINK-35990","OBJECT_ID":"2025-278B","EPOCH":"2026-03-09T12:08:00.109248","MEAN_MOTION":15.27586169,"ECCENTRICITY":9.933e-5,"INCLINATION":42.9974,"RA_OF_ASC_NODE":115.1677,"ARG_OF_PERICENTER":201.3802,"MEAN_ANOMALY":158.7008,"EPHEMERIS_TYPE":0,"CLASSIFICATION_TYPE":"U","NORAD_CAT_ID":66792,"ELEMENT_SET_NO":999,"REV_AT_EPOCH":1518,"BSTAR":0.00085070919,"MEAN_MOTION_DOT":0.00023226,"MEAN_MOTION_DDOT":0},{"OBJECT_NAME":"OBJECT D","OBJECT_ID":"2025-197D","EPOCH":"2026-03-09T23:30:56.303712","MEAN_MOTION":15.25287442,"ECCENTRICITY":0.00144425,"INCLINATION":97.4091,"RA_OF_ASC_NODE":257.3677,"ARG_OF_PERICENTER":3.398,"MEAN_ANOMALY":356.7353,"EPHEMERIS_TYPE":0,"CLASSIFICATION_TYPE":"U","NORAD_CAT_ID":65491,"ELEMENT_SET_NO":999,"REV_AT_EPOCH":2822,"BSTAR":0.00037200129,"MEAN_MOTION_DOT":9.321e-5,"MEAN_MOTION_DDOT":0}]
